{
    "links": {
        "self": "http://www.neowsapp.com/rest/v1/neo/3826802?api_key=iIulBulltgU6a56xZRHN4H3l9WmuAYTsLGpBGhQ2"
    },
    "id": "3826802",
    "neo_reference_id": "3826802",
    "name": "(2018 PC22)",
    "designation": "2018 PC22",
    "nasa_jpl_url": "http://ssd.jpl.nasa.gov/sbdb.cgi?sstr=3826802",
    "absolute_magnitude_h": 24.6,
    "estimated_diameter": {
        "kilometers": {
            "estimated_diameter_min": 0.0319561887,
            "estimated_diameter_max": 0.0714562102
        },
        "meters": {
            "estimated_diameter_min": 31.9561886721,
            "estimated_diameter_max": 71.4562101727
        },
        "miles": {
            "estimated_diameter_min": 0.0198566489,
            "estimated_diameter_max": 0.0444008168
        },
        "feet": {
            "estimated_diameter_min": 104.8431420431,
            "estimated_diameter_max": 234.436392583
        }
    },
    "is_potentially_hazardous_asteroid": false,
    "close_approach_data": [
        {
            "close_approach_date": "2018-07-24",
            "close_approach_date_full": "2018-Jul-24 10:19",
            "epoch_date_close_approach": 1532427540000,
            "relative_velocity": {
                "kilometers_per_second": "6.7619684424",
                "kilometers_per_hour": "24343.0863925526",
                "miles_per_hour": "15125.8472087503"
            },
            "miss_distance": {
                "astronomical": "0.1256776361",
                "lunar": "48.8886004429",
                "kilometers": "18801106.667195107",
                "miles": "11682465.9598501966"
            },
            "orbiting_body": "Earth"
        }
    ],
    "orbital_data": {
        "orbit_id": "1",
        "orbit_determination_date": "2018-08-15 12:42:03",
        "first_observation_date": "2018-08-12",
        "last_observation_date": "2018-08-15",
        "data_arc_in_days": 3,
        "observations_used": 10,
        "orbit_uncertainty": "9",
        "minimum_orbit_intersection": ".125156",
        "jupiter_tisserand_invariant": "3.555",
        "epoch_osculation": "2458343.5",
        "eccentricity": ".4663156635168704",
        "semi_major_axis": "2.135530955076967",
        "inclination": "9.276173718659111",
        "ascending_node_longitude": "306.9988077923363",
        "orbital_period": "1139.875012292224",
        "perihelion_distance": "1.139699420799435",
        "perihelion_argument": "352.2823130223991",
        "aphelion_distance": "3.131362489354498",
        "perihelion_time": "2458321.437655930676",
        "mean_anomaly": "6.967819962106929",
        "mean_motion": ".3158241001143278",
        "equinox": "J2000",
        "orbit_class": {
            "orbit_class_type": "AMO",
            "orbit_class_description": "Near-Earth asteroid orbits similar to that of 1221 Amor",
            "orbit_class_range": "1.017 AU < q (perihelion) < 1.3 AU"
        }
    },
    "is_sentry_object": false
}